[{"OBJECT_NAME":"STARLINK-5697","OBJECT_ID":"2023-020W","EPOCH":"2026-03-09T22:00:01.999584","MEAN_MOTION":15.10960838,"ECCENTRICITY":8.729e-5,"INCLINATION":43.0005,"RA_OF_ASC_NODE":3.1004,"ARG_OF_PERICENTER":307.7189,"MEAN_ANOMALY":175.5763,"EPHEMERIS_TYPE":0,"CLASSIFICATION_TYPE":"U","NORAD_CAT_ID":55589,"ELEMENT_SET_NO":999,"REV_AT_EPOCH":573,"BSTAR":0.072755061,"MEAN_MOTION_DOT":0.01343581,"MEAN_MOTION_DDOT":0},{"OBJECT_NAME":"TRANSPORTER-5 OBJECT V","OBJECT_ID":"2022-057V","EPOCH":"2026-03-09T22:32:39.603264","MEAN_MOTION":15.36038689,"ECCENTRICITY":0.00071239,"INCLINATION":97.6463,"RA_OF_ASC_NODE":213.1013,"ARG_OF_PERICENTER":92.6453,"MEAN_ANOMALY":267.5606,"EPHEMERIS_TYPE":0,"CLASSIFICATION_TYPE":"U","NORAD_CAT_ID":52751,"ELEMENT_SET_NO":999,"REV_AT_EPOCH":21046,"BSTAR":0.00039927859,"MEAN_MOTION_DOT":0.00013948,"MEAN_MOTION_DDOT":0}]
